start=new Date('2021-10-02T00:00:00.000Z').valueOf();
sats=[{"TLE_LINE2":"2 47766  53.0549 299.7198 0001305  82.5719 277.5419 15.06408679 33315","ECCENTRICITY":"0.00013050","CENTER_NAME":"EARTH","MEAN_MOTION_DOT":"0.00005521","LAUNCH_DATE":"2021-03-04","SITE":"AFETR","GP_ID":"185927426","NORAD_CAT_ID":"47766","CLASSIFICATION_TYPE":"U","RCS_SIZE":"LARGE","MEAN_MOTION":"15.06408679","REF_FRAME":"TEME","TLE_LINE1":"1 47766U 21017AW  21274.54664382  .00005521  00000-0  38914-3 0  9996","INCLINATION":"53.0549","EPHEMERIS_TYPE":"0","TIME_SYSTEM":"UTC","DECAY_DATE":null,"BSTAR":"0.00038914000000","ELEMENT_SET_NO":"999","EPOCH":"2021-10-01T13:07:10.026048","OBJECT_NAME":"STARLINK-2184","APOAPSIS":"548.091","RA_OF_ASC_NODE":"299.7198","PERIAPSIS":"546.283","PERIOD":"95.592","COUNTRY_CODE":"US","MEAN_MOTION_DDOT":"0.0000000000000","ARG_OF_PERICENTER":"82.5719","SEMIMAJOR_AXIS":"6925.322","OBJECT_ID":"2021-017AW","REV_AT_EPOCH":"3331","MEAN_ELEMENT_THEORY":"SGP4","FILE":"3138865","MEAN_ANOMALY":"277.5419","OBJECT_TYPE":"PAYLOAD"},{"ECCENTRICITY":"0.00011700","TLE_LINE2":"2 47767  53.0555 284.9029 0001170  87.5401 272.5722 15.06405435 33583","LAUNCH_DATE":"2021-03-04","CENTER_NAME":"EARTH","MEAN_MOTION_DOT":"0.00001509","SITE":"AFETR","CLASSIFICATION_TYPE":"U","NORAD_CAT_ID":"47767","GP_ID":"185926175","RCS_SIZE":"LARGE","MEAN_MOTION":"15.06405435","REF_FRAME":"TEME","TLE_LINE1":"1 47767U 21017AX  21274.50563275  .00001509  00000-0  12014-3 0  9997","INCLINATION":"53.0555","EPHEMERIS_TYPE":"0","DECAY_DATE":null,"TIME_SYSTEM":"UTC","BSTAR":"0.00012014000000","ELEMENT_SET_NO":"999","EPOCH":"2021-10-01T12:08:06.669600","OBJECT_NAME":"STARLINK-2185","APOAPSIS":"548.007","RA_OF_ASC_NODE":"284.9029","PERIAPSIS":"546.387","COUNTRY_CODE":"US","MEAN_MOTION_DDOT":"0.0000000000000","PERIOD":"95.592","OBJECT_ID":"2021-017AX","SEMIMAJOR_AXIS":"6925.332","ARG_OF_PERICENTER":"87.5401","REV_AT_EPOCH":"3358","MEAN_ELEMENT_THEORY":"SGP4","FILE":"3138865","OBJECT_TYPE":"PAYLOAD","MEAN_ANOMALY":"272.5722"},{"MEAN_ELEMENT_THEORY":"SGP4","FILE":"3139397","OBJECT_TYPE":"PAYLOAD","MEAN_ANOMALY":"282.0325","RA_OF_ASC_NODE":"298.7107","PERIAPSIS":"546.363","COUNTRY_CODE":"US","MEAN_MOTION_DDOT":"0.0000000000000","PERIOD":"95.592","OBJECT_ID":"2021-017AY","SEMIMAJOR_AXIS":"6925.350","ARG_OF_PERICENTER":"78.0802","REV_AT_EPOCH":"3338","INCLINATION":"53.0559","TLE_LINE1":"1 47768U 21017AY  21274.77422305 -.00000064  00000-0  14568-4 0  9998","EPHEMERIS_TYPE":"0","DECAY_DATE":null,"TIME_SYSTEM":"UTC","BSTAR":"0.00001456800000","ELEMENT_SET_NO":"999","EPOCH":"2021-10-01T18:34:52.871520","OBJECT_NAME":"STARLINK-2189","APOAPSIS":"548.068","TLE_LINE2":"2 47768  53.0559 298.7107 0001231  78.0802 282.0325 15.06399517 33382","ECCENTRICITY":"0.00012310","LAUNCH_DATE":"2021-03-04","CENTER_NAME":"EARTH","MEAN_MOTION_DOT":"-0.00000064","SITE":"AFETR","CLASSIFICATION_TYPE":"U","GP_ID":"185962058","NORAD_CAT_ID":"47768","RCS_SIZE":"LARGE","MEAN_MOTION":"15.06399517","REF_FRAME":"TEME"},{"CLASSIFICATION_TYPE":"U","NORAD_CAT_ID":"47769","GP_ID":"185961311","RCS_SIZE":"LARGE","MEAN_MOTION":"15.06366759","REF_FRAME":"TEME","ECCENTRICITY":"0.00010360","TLE_LINE2":"2 47769  53.0500 264.0963 0001036  60.5149 299.5943 15.06366759 33884","LAUNCH_DATE":"2021-03-04","CENTER_NAME":"EARTH","MEAN_MOTION_DOT":"-0.00006061","SITE":"AFETR","EPOCH":"2021-10-01T16:30:50.214816","ELEMENT_SET_NO":"999","OBJECT_NAME":"STARLINK-2192","APOAPSIS":"548.033","TLE_LINE1":"1 47769U 21017AZ  21274.68808119 -.00006061  00000-0 -38873-3 0  9998","INCLINATION":"53.0500","EPHEMERIS_TYPE":"0","DECAY_DATE":null,"TIME_SYSTEM":"UTC","BSTAR":"-0.00038873000000","COUNTRY_CODE":"US","MEAN_MOTION_DDOT":"0.0000000000000","PERIOD":"95.594","SEMIMAJOR_AXIS":"6925.450","OBJECT_ID":"2021-017AZ","ARG_OF_PERICENTER":"60.5149","REV_AT_EPOCH":"3388","RA_OF_ASC_NODE":"264.0963","PERIAPSIS":"546.598","MEAN_ELEMENT_THEORY":"SGP4","FILE":"3139397","OBJECT_TYPE":"PAYLOAD","MEAN_ANOMALY":"299.5943"},{"OBJECT_TYPE":"PAYLOAD","MEAN_ANOMALY":"283.0282","MEAN_ELEMENT_THEORY":"SGP4","FILE":"3138865","PERIAPSIS":"546.398","RA_OF_ASC_NODE":"279.9552","OBJECT_ID":"2021-017BA","SEMIMAJOR_AXIS":"6925.335","ARG_OF_PERICENTER":"77.0836","REV_AT_EPOCH":"3362","MEAN_MOTION_DDOT":"0.0000000000000","COUNTRY_CODE":"US","PERIOD":"95.592","DECAY_DATE":null,"TIME_SYSTEM":"UTC","BSTAR":"-0.00016607000000","TLE_LINE1":"1 47770U 21017BA  21274.49225273 -.00002754  00000-0 -16607-3 0  9999","INCLINATION":"53.0548","EPHEMERIS_TYPE":"0","APOAPSIS":"548.001","EPOCH":"2021-10-01T11:48:50.635872","ELEMENT_SET_NO":"999","OBJECT_NAME":"STARLINK-2193","LAUNCH_DATE":"2021-03-04","CENTER_NAME":"EARTH","MEAN_MOTION_DOT":"-0.00002754","SITE":"AFETR","TLE_LINE2":"2 47770  53.0548 279.9552 0001157  77.0836 283.0282 15.06404572 33629","ECCENTRICITY":"0.00011570","MEAN_MOTION":"15.06404572","REF_FRAME":"TEME","CLASSIFICATION_TYPE":"U","GP_ID":"185926927","NORAD_CAT_ID":"47770","RCS_SIZE":"LARGE"},{"MEAN_MOTION":"15.06386942","REF_FRAME":"TEME","RCS_SIZE":"LARGE","NORAD_CAT_ID":"47771","GP_ID":"185961805","CLASSIFICATION_TYPE":"U","SITE":"AFETR","CENTER_NAME":"EARTH","MEAN_MOTION_DOT":"0.00001180","LAUNCH_DATE":"2021-03-04","TLE_LINE2":"2 47771  53.0552 278.9903 0001358  81.6720 278.4423 15.06386942 33669","ECCENTRICITY":"0.00013580","APOAPSIS":"548.194","OBJECT_NAME":"STARLINK-2194","EPOCH":"2021-10-01T16:58:03.907488","ELEMENT_SET_NO":"999","BSTAR":"0.00009811100000","TIME_SYSTEM":"UTC","DECAY_DATE":null,"EPHEMERIS_TYPE":"0","TLE_LINE1":"1 47771U 21017BB  21274.70698967  .00001180  00000-0  98111-4 0  9999","INCLINATION":"53.0552","REV_AT_EPOCH":"3366","ARG_OF_PERICENTER":"81.6720","SEMIMAJOR_AXIS":"6925.389","OBJECT_ID":"2021-017BB","PERIOD":"95.593","COUNTRY_CODE":"US","MEAN_MOTION_DDOT":"0.0000000000000","PERIAPSIS":"546.313","RA_OF_ASC_NODE":"278.9903","MEAN_ANOMALY":"278.4423","OBJECT_TYPE":"PAYLOAD","FILE":"3139397","MEAN_ELEMENT_THEORY":"SGP4"},{"REF_FRAME":"TEME","MEAN_MOTION":"15.06393518","RCS_SIZE":"LARGE","CLASSIFICATION_TYPE":"U","NORAD_CAT_ID":"47772","GP_ID":"185962559","SITE":"AFETR","LAUNCH_DATE":"2021-03-04","CENTER_NAME":"EARTH","MEAN_MOTION_DOT":"0.00000181","TLE_LINE2":"2 47772  53.0548 293.7436 0000728  59.7905 300.3155 15.06393518 33431","ECCENTRICITY":"0.00007280","APOAPSIS":"547.738","OBJECT_NAME":"STARLINK-2195","EPOCH":"2021-10-01T18:18:20.332512","ELEMENT_SET_NO":"999","BSTAR":"0.00003101800000","DECAY_DATE":null,"TIME_SYSTEM":"UTC","EPHEMERIS_TYPE":"0","TLE_LINE1":"1 47772U 21017BC  21274.76273533  .00000181  00000-0  31018-4 0  9997","INCLINATION":"53.0548","REV_AT_EPOCH":"3343","OBJECT_ID":"2021-017BC","SEMIMAJOR_AXIS":"6925.368","ARG_OF_PERICENTER":"59.7905","MEAN_MOTION_DDOT":"0.0000000000000","COUNTRY_CODE":"US","PERIOD":"95.593","PERIAPSIS":"546.729","RA_OF_ASC_NODE":"293.7436","OBJECT_TYPE":"PAYLOAD","MEAN_ANOMALY":"300.3155","FILE":"3139397","MEAN_ELEMENT_THEORY":"SGP4"},{"EPHEMERIS_TYPE":"0","TLE_LINE1":"1 47773U 21017BD  21274.75903789  .00001601  00000-0  12634-3 0  9990","INCLINATION":"53.0550","BSTAR":"0.00012634000000","DECAY_DATE":null,"TIME_SYSTEM":"UTC","OBJECT_NAME":"STARLINK-2196","EPOCH":"2021-10-01T18:13:00.873696","ELEMENT_SET_NO":"999","APOAPSIS":"548.037","TLE_LINE2":"2 47773  53.0550 293.7648 0001196  71.9447 288.1672 15.06401660 33421","ECCENTRICITY":"0.00011960","SITE":"AFETR","LAUNCH_DATE":"2021-03-04","MEAN_MOTION_DOT":"0.00001601","CENTER_NAME":"EARTH","RCS_SIZE":"LARGE","CLASSIFICATION_TYPE":"U","NORAD_CAT_ID":"47773","GP_ID":"185960811","REF_FRAME":"TEME","MEAN_MOTION":"15.06401660","FILE":"3139397","MEAN_ELEMENT_THEORY":"SGP4","MEAN_ANOMALY":"288.1672","OBJECT_TYPE":"PAYLOAD","RA_OF_ASC_NODE":"293.7648","PERIAPSIS":"546.380","MEAN_MOTION_DDOT":"0.0000000000000","COUNTRY_CODE":"US","PERIOD":"95.592","REV_AT_EPOCH":"3342","OBJECT_ID":"2021-017BD","SEMIMAJOR_AXIS":"6925.343","ARG_OF_PERICENTER":"71.9447"},{"PERIAPSIS":"546.327","RA_OF_ASC_NODE":"293.7776","OBJECT_ID":"2021-017BE","SEMIMAJOR_AXIS":"6925.353","ARG_OF_PERICENTER":"92.2867","REV_AT_EPOCH":"3343","MEAN_MOTION_DDOT":"0.0000000000000","COUNTRY_CODE":"US","PERIOD":"95.592","MEAN_ANOMALY":"267.8269","OBJECT_TYPE":"PAYLOAD","MEAN_ELEMENT_THEORY":"SGP4","FILE":"3139397","LAUNCH_DATE":"2021-03-04","CENTER_NAME":"EARTH","MEAN_MOTION_DOT":"0.00001465","SITE":"AFETR","ECCENTRICITY":"0.00012860","TLE_LINE2":"2 47774  53.0551 293.7776 0001286  92.2867 267.8269 15.06398599 33430","MEAN_MOTION":"15.06398599","REF_FRAME":"TEME","CLASSIFICATION_TYPE":"U","NORAD_CAT_ID":"47774","GP_ID":"185961061","RCS_SIZE":"LARGE","DECAY_DATE":null,"TIME_SYSTEM":"UTC","BSTAR":"0.00011720000000","TLE_LINE1":"1 47774U 21017BE  21274.75535482  .00001465  00000-0  11720-3 0  9995","INCLINATION":"53.0551","EPHEMERIS_TYPE":"0","APOAPSIS":"548.108","ELEMENT_SET_NO":"999","EPOCH":"2021-10-01T18:07:42.656448","OBJECT_NAME":"STARLINK-2197"},{"MEAN_ANOMALY":"281.4770","OBJECT_TYPE":"PAYLOAD","MEAN_ELEMENT_THEORY":"SGP4","FILE":"3139397","PERIAPSIS":"546.628","RA_OF_ASC_NODE":"293.7457","SEMIMAJOR_AXIS":"6925.389","OBJECT_ID":"2021-017BF","ARG_OF_PERICENTER":"78.6321","REV_AT_EPOCH":"3348","MEAN_MOTION_DDOT":"0.0000000000000","COUNTRY_CODE":"US","PERIOD":"95.593","DECAY_DATE":null,"TIME_SYSTEM":"UTC","BSTAR":"-0.00001509500000","TLE_LINE1":"1 47775U 21017BF  21274.76642270 -.00000506  00000-0 -15095-4 0  9998","INCLINATION":"53.0552","EPHEMERIS_TYPE":"0","APOAPSIS":"547.880","ELEMENT_SET_NO":"999","EPOCH":"2021-10-01T18:23:38.921280","OBJECT_NAME":"STARLINK-2198","LAUNCH_DATE":"2021-03-04","CENTER_NAME":"EARTH","MEAN_MOTION_DOT":"-0.00000506","SITE":"AFETR","ECCENTRICITY":"0.00009040","TLE_LINE2":"2 47775  53.0552 293.7457 0000904  78.6321 281.4770 15.06386876 33486","MEAN_MOTION":"15.06386876","REF_FRAME":"TEME","CLASSIFICATION_TYPE":"U","NORAD_CAT_ID":"47775","GP_ID":"185962306","RCS_SIZE":"LARGE"}];
